[{"OBJECT_NAME":"STARLINK-30441","OBJECT_ID":"2023-144F","EPOCH":"2026-03-08T23:50:40.709472","MEAN_MOTION":15.26742636,"ECCENTRICITY":0.00012396,"INCLINATION":42.9993,"RA_OF_ASC_NODE":288.8591,"ARG_OF_PERICENTER":270.5362,"MEAN_ANOMALY":89.5347,"EPHEMERIS_TYPE":0,"CLASSIFICATION_TYPE":"U","NORAD_CAT_ID":57869,"ELEMENT_SET_NO":999,"REV_AT_EPOCH":13749,"BSTAR":-4.321592e-6,"MEAN_MOTION_DOT":-3.76e-6,"MEAN_MOTION_DDOT":0},{"OBJECT_NAME":"SL-24 DEB","OBJECT_ID":"2013-066AL","EPOCH":"2026-03-09T22:28:39.180576","MEAN_MOTION":15.26992446,"ECCENTRICITY":0.00036318,"INCLINATION":97.3978,"RA_OF_ASC_NODE":75.9402,"ARG_OF_PERICENTER":273.216,"MEAN_ANOMALY":86.8663,"EPHEMERIS_TYPE":0,"CLASSIFICATION_TYPE":"U","NORAD_CAT_ID":39450,"ELEMENT_SET_NO":999,"REV_AT_EPOCH":67244,"BSTAR":0.00070559472,"MEAN_MOTION_DOT":0.00018651,"MEAN_MOTION_DDOT":0}]
